{"type": "FeatureCollection", "features": [ {"type": "Feature", "properties": {"norad_id": 66512, "name": "STARLINK-35366", "group": "last-30-days", "lat": -27.86204032339812, "lon": 128.5821456072497, "alt_km": 390.2633908297312, "timestamp": "2025-12-06T05:40:08.011463+00:00", "meta": {"OBJECT_NAME": "STARLINK-35366", "OBJECT_ID": "2025-263AD", "EPOCH": "2025-12-05T06:00:02.000160", "MEAN_MOTION": 15.63885438, "ECCENTRICITY": 0.00013864, "INCLINATION": 42.9993, "RA_OF_ASC_NODE": 169.0102, "ARG_OF_PERICENTER": 267.2099, "MEAN_ANOMALY": 258.4625, "EPHEMERIS_TYPE": 0, "CLASSIFICATION_TYPE": "U", "NORAD_CAT_ID": 66512, "ELEMENT_SET_NO": 999, "REV_AT_EPOCH": 443, "BSTAR": -0.024422582, "MEAN_MOTION_DOT": -0.02065519, "MEAN_MOTION_DDOT": 0}, "tle": {"line1": "1 66512U 25263AD  25339.25002315 -.02065519  00000+0 -24423-1 0  9993", "line2": "2 66512  42.9993 169.0102 0001386 267.2099 258.4625 15.63885438  4434"}}, "geometry": {"type": "Point", "coordinates": [128.5821456072497, -27.86204032339812]}}, {"type": "Feature", "properties": {"norad_id": 66513, "name": "STARLINK-35692", "group": "last-30-days", "lat": -30.96397814822377, "lon": 123.07492542499122, "alt_km": 390.3199625682, "timestamp": "2025-12-06T05:40:08.011473+00:00", "meta": {"OBJECT_NAME": "STARLINK-35692", "OBJECT_ID": "2025-263AE", "EPOCH": "2025-12-05T06:00:02.000160", "MEAN_MOTION": 15.63874643, "ECCENTRICITY": 0.00014046, "INCLINATION": 42.9993, "RA_OF_ASC_NODE": 169.0244, "ARG_OF_PERICENTER": 266.5254, "MEAN_ANOMALY": 253.4001, "EPHEMERIS_TYPE": 0, "CLASSIFICATION_TYPE": "U", "NORAD_CAT_ID": 66513, "ELEMENT_SET_NO": 999, "REV_AT_EPOCH": 443, "BSTAR": -0.024240499, "MEAN_MOTION_DOT": -0.0205131, "MEAN_MOTION_DDOT": 0}, "tle": {"line1": "1 66513U 25263AE  25339.25002315 -.02051310  00000+0 -24240-1 0  9995", "line2": "2 66513  42.9993 169.0244 0001404 266.5254 253.4001 15.63874643  4437"}}, "geometry": {"type": "Point", "coordinates": [123.07492542499122, -30.96397814822377]}}, {"type": "Feature", "properties": {"norad_id": 66514, "name": "SENTINEL-6B", "group": "last-30-days", "lat": -43.49547371251051, "lon": 151.02915288351986, "alt_km": 1317.1577320330398, "timestamp": "2025-12-06T05:40:08.011483+00:00", "meta": {"OBJECT_NAME": "SENTINEL-6B", "OBJECT_ID": "2025-264A", "EPOCH": "2025-12-05T05:39:22.607712", "MEAN_MOTION": 12.8587775, "ECCENTRICITY": 0.0011549, "INCLINATION": 66.0392, "RA_OF_ASC_NODE": 178.08, "ARG_OF_PERICENTER": 268.4163, "MEAN_ANOMALY": 91.5532, "EPHEMERIS_TYPE": 0, "CLASSIFICATION_TYPE": "U", "NORAD_CAT_ID": 66514, "ELEMENT_SET_NO": 999, "REV_AT_EPOCH": 232, "BSTAR": 0.00029277117, "MEAN_MOTION_DOT": 1e-07, "MEAN_MOTION_DDOT": 0}, "tle": {"line1": "1 66514U 25264A   25339.23567833  .00000010  00000+0  29277-3 0  9990", "line2": "2 66514  66.0392 178.0800 0011549 268.4163  91.5532 12.85877750  2326"}}, "geometry": {"type": "Point", "coordinates": [151.02915288351986, -43.49547371251051]}}, {"type": "Feature", "properties": {"norad_id": 66516, "name": "STARLINK-35924", "group": "last-30-days", "lat": 27.81192435316091, "lon": 126.7909539057772, "alt_km": 364.3551839006195, "timestamp": "2025-12-06T05:40:08.011496+00:00", "meta": {"OBJECT_NAME": "STARLINK-35924", "OBJECT_ID": "2025-265A", "EPOCH": "2025-12-05T06:00:02.000160", "MEAN_MOTION": 15.70704556, "ECCENTRICITY": 0.00013582, "INCLINATION": 43, "RA_OF_ASC_NODE": 98.2404, "ARG_OF_PERICENTER": 269.0606, "MEAN_ANOMALY": 318.042, "EPHEMERIS_TYPE": 0, "CLASSIFICATION_TYPE": "U", "NORAD_CAT_ID": 66516, "ELEMENT_SET_NO": 999, "REV_AT_EPOCH": 377, "BSTAR": -0.016688826, "MEAN_MOTION_DOT": -0.01891503, "MEAN_MOTION_DDOT": 0}, "tle": {"line1": "1 66516U 25265A   25339.25002315 -.01891503  00000+0 -16689-1 0  9993", "line2": "2 66516  43.0000  98.2404 0001358 269.0606 318.0420 15.70704556  3771"}}, "geometry": {"type": "Point", "coordinates": [126.7909539057772, 27.81192435316091]}}, {"type": "Feature", "properties": {"norad_id": 66517, "name": "STARLINK-35937", "group": "last-30-days", "lat": 28.877546431766596, "lon": 128.59779512657354, "alt_km": 364.1815399544503, "timestamp": "2025-12-06T05:40:08.011507+00:00", "meta": {"OBJECT_NAME": "STARLINK-35937", "OBJECT_ID": "2025-265B", "EPOCH": "2025-12-05T06:00:02.000160", "MEAN_MOTION": 15.70703019, "ECCENTRICITY": 0.0001198, "INCLINATION": 42.9999, "RA_OF_ASC_NODE": 98.2361, "ARG_OF_PERICENTER": 267.2812, "MEAN_ANOMALY": 321.7401, "EPHEMERIS_TYPE": 0, "CLASSIFICATION_TYPE": "U", "NORAD_CAT_ID": 66517, "ELEMENT_SET_NO": 999, "REV_AT_EPOCH": 379, "BSTAR": -0.016678694, "MEAN_MOTION_DOT": -0.01890258, "MEAN_MOTION_DDOT": 0}, "tle": {"line1": "1 66517U 25265B   25339.25002315 -.01890258  00000+0 -16679-1 0  9999", "line2": "2 66517  42.9999  98.2361 0001198 267.2812 321.7401 15.70703019  3795"}}, "geometry": {"type": "Point", "coordinates": [128.59779512657354, 28.877546431766596]}}, {"type": "Feature", "properties": {"norad_id": 66518, "name": "STARLINK-35962", "group": "last-30-days", "lat": 29.945409900050496, "lon": 130.48956714034892, "alt_km": 364.13965971089146, "timestamp": "2025-12-06T05:40:08.011521+00:00", "meta": {"OBJECT_NAME": "STARLINK-35962", "OBJECT_ID": "2025-265C", "EPOCH": "2025-12-05T06:00:02.000160", "MEAN_MOTION": 15.70674548, "ECCENTRICITY": 0.00015698, "INCLINATION": 42.9999, "RA_OF_ASC_NODE": 98.2309, "ARG_OF_PERICENTER": 267.0472, "MEAN_ANOMALY": 323.9095, "EPHEMERIS_TYPE": 0, "CLASSIFICATION_TYPE": "U", "NORAD_CAT_ID": 66518, "ELEMENT_SET_NO": 999, "REV_AT_EPOCH": 379, "BSTAR": -0.016377263, "MEAN_MOTION_DOT": -0.01822418, "MEAN_MOTION_DDOT": 0}, "tle": {"line1": "1 66518U 25265C   25339.25002315 -.01822418  00000+0 -16377-1 0  9998", "line2": "2 66518  42.9999  98.2309 0001569 267.0472 323.9095 15.70674548  3797"}}, "geometry": {"type": "Point", "coordinates": [130.48956714034892, 29.945409900050496]}}, {"type": "Feature", "properties": {"norad_id": 66519, "name": "STARLINK-35931", "group": "last-30-days", "lat": 30.88191865937069, "lon": 132.22522523973294, "alt_km": 363.93793898278, "timestamp": "2025-12-06T05:40:08.011531+00:00", "meta": {"OBJECT_NAME": "STARLINK-35931", "OBJECT_ID": "2025-265D", "EPOCH": "2025-12-05T06:00:02.000160", "MEAN_MOTION": 15.70635165, "ECCENTRICITY": 0.00016153, "INCLINATION": 43, "RA_OF_ASC_NODE": 98.2257, "ARG_OF_PERICENTER": 279.0378, "MEAN_ANOMALY": 313.9285, "EPHEMERIS_TYPE": 0, "CLASSIFICATION_TYPE": "U", "NORAD_CAT_ID": 66519, "ELEMENT_SET_NO": 999, "REV_AT_EPOCH": 379, "BSTAR": -0.016669854, "MEAN_MOTION_DOT": -0.0188485, "MEAN_MOTION_DDOT": 0}, "tle": {"line1": "1 66519U 25265D   25339.25002315 -.01884850  00000+0 -16670-1 0  9993", "line2": "2 66519  43.0000  98.2257 0001615 279.0378 313.9285 15.70635165  3797"}}, "geometry": {"type": "Point", "coordinates": [132.22522523973294, 30.88191865937069]}}, {"type": "Feature", "properties": {"norad_id": 66520, "name": "STARLINK-35952", "group": "last-30-days", "lat": 31.92477006776599, "lon": 134.25414616999234, "alt_km": 363.77854550236407, "timestamp": "2025-12-06T05:40:08.011542+00:00", "meta": {"OBJECT_NAME": "STARLINK-35952", "OBJECT_ID": "2025-265E", "EPOCH": "2025-12-05T06:00:02.000160", "MEAN_MOTION": 15.70701904, "ECCENTRICITY": 0.00012982, "INCLINATION": 42.9999, "RA_OF_ASC_NODE": 98.221, "ARG_OF_PERICENTER": 269.4141, "MEAN_ANOMALY": 325.358, "EPHEMERIS_TYPE": 0, "CLASSIFICATION_TYPE": "U", "NORAD_CAT_ID": 66520, "ELEMENT_SET_NO": 999, "REV_AT_EPOCH": 379, "BSTAR": -0.016659086, "MEAN_MOTION_DOT": -0.01888277, "MEAN_MOTION_DDOT": 0}, "tle": {"line1": "1 66520U 25265E   25339.25002315 -.01888277  00000+0 -16659-1 0  9999", "line2": "2 66520  42.9999  98.2210 0001298 269.4141 325.3580 15.70701904  3791"}}, "geometry": {"type": "Point", "coordinates": [134.25414616999234, 31.92477006776599]}}, {"type": "Feature", "properties": {"norad_id": 66521, "name": "STARLINK-35915", "group": "last-30-days", "lat": 32.87942234809272, "lon": 136.21277683636407, "alt_km": 363.7165230671253, "timestamp": "2025-12-06T05:40:08.011552+00:00", "meta": {"OBJECT_NAME": "STARLINK-35915", "OBJECT_ID": "2025-265F", "EPOCH": "2025-12-05T06:00:02.000160", "MEAN_MOTION": 15.70706698, "ECCENTRICITY": 0.00013009, "INCLINATION": 42.9999, "RA_OF_ASC_NODE": 98.2162, "ARG_OF_PERICENTER": 267.9245, "MEAN_ANOMALY": 328.7613, "EPHEMERIS_TYPE": 0, "CLASSIFICATION_TYPE": "U", "NORAD_CAT_ID": 66521, "ELEMENT_SET_NO": 999, "REV_AT_EPOCH": 379, "BSTAR": -0.01670306, "MEAN_MOTION_DOT": -0.01893047, "MEAN_MOTION_DDOT": 0}, "tle": {"line1": "1 66521U 25265F   25339.25002315 -.01893047  00000+0 -16703-1 0  9991", "line2": "2 66521  42.9999  98.2162 0001300 267.9245 328.7613 15.70706698  3799"}}, "geometry": {"type": "Point", "coordinates": [136.21277683636407, 32.87942234809272]}}, {"type": "Feature", "properties": {"norad_id": 66522, "name": "STARLINK-35946", "group": "last-30-days", "lat": 33.80591883528371, "lon": 138.22064196091947, "alt_km": 363.5893634296117, "timestamp": "2025-12-06T05:40:08.011571+00:00", "meta": {"OBJECT_NAME": "STARLINK-35946", "OBJECT_ID": "2025-265G", "EPOCH": "2025-12-05T06:00:02.000160", "MEAN_MOTION": 15.70703945, "ECCENTRICITY": 0.00013016, "INCLINATION": 42.9998, "RA_OF_ASC_NODE": 98.2113, "ARG_OF_PERICENTER": 268.1956, "MEAN_ANOMALY": 330.4103, "EPHEMERIS_TYPE": 0, "CLASSIFICATION_TYPE": "U", "NORAD_CAT_ID": 66522, "ELEMENT_SET_NO": 999, "REV_AT_EPOCH": 379, "BSTAR": -0.016686337, "MEAN_MOTION_DOT": -0.01891168, "MEAN_MOTION_DDOT": 0}, "tle": {"line1": "1 66522U 25265G   25339.25002315 -.01891168  00000+0 -16686-1 0  9994", "line2": "2 66522  42.9998  98.2113 0001301 268.1956 330.4103 15.70703945  3794"}}, "geometry": {"type": "Point", "coordinates": [138.22064196091947, 33.80591883528371]}}]}